start=new Date('2022-10-28T00:00:00.000Z').valueOf();
sats=[{"SEMIMAJOR_AXIS":"6696.304","RCS_SIZE":null,"TLE_LINE1":"1 54082U 22136AH  22300.91667824 -.01141086  00000-0 -55565-2 0  9994","INCLINATION":"53.2174","COUNTRY_CODE":"US","APOAPSIS":"324.277","OBJECT_NAME":"STARLINK-5210","MEAN_ELEMENT_THEORY":"SGP4","PERIAPSIS":"312.062","RA_OF_ASC_NODE":"111.8992","SITE":"AFETR","NORAD_CAT_ID":"54082","OBJECT_TYPE":"PAYLOAD","GP_ID":"216338976","TIME_SYSTEM":"UTC","DECAY_DATE":null,"LAUNCH_DATE":"2022-10-20","MEAN_MOTION":"15.84345781","EPOCH":"2022-10-27T22:00:00.999936","MEAN_ANOMALY":"84.0972","CENTER_NAME":"EARTH","FILE":"3636022","BSTAR":"-0.00555650000000","MEAN_MOTION_DOT":"-0.01141086","MEAN_MOTION_DDOT":"0.0000000000000","OBJECT_ID":"2022-136AH","TLE_LINE2":"2 54082  53.2174 111.8992 0009121  48.8500  84.0972 15.84345781  1302","ARG_OF_PERICENTER":"48.8500","REV_AT_EPOCH":"130","ELEMENT_SET_NO":"999","CLASSIFICATION_TYPE":"U","ECCENTRICITY":"0.00091210","REF_FRAME":"TEME","PERIOD":"90.889","EPHEMERIS_TYPE":"0"},{"DECAY_DATE":null,"LAUNCH_DATE":"2022-10-20","GP_ID":"216338623","TIME_SYSTEM":"UTC","MEAN_MOTION":"15.84427269","CENTER_NAME":"EARTH","EPOCH":"2022-10-27T22:00:00.999936","MEAN_ANOMALY":"85.2218","BSTAR":"-0.00553560000000","MEAN_MOTION_DOT":"-0.01141502","FILE":"3636022","OBJECT_ID":"2022-136AJ","TLE_LINE2":"2 54083  53.2174 111.8961 0009309  49.4444  85.2218 15.84427269  1309","MEAN_MOTION_DDOT":"0.0000000000000","ELEMENT_SET_NO":"999","CLASSIFICATION_TYPE":"U","REV_AT_EPOCH":"130","ARG_OF_PERICENTER":"49.4444","ECCENTRICITY":"0.00093090","REF_FRAME":"TEME","PERIOD":"90.885","EPHEMERIS_TYPE":"0","SEMIMAJOR_AXIS":"6696.075","RCS_SIZE":null,"TLE_LINE1":"1 54083U 22136AJ  22300.91667824 -.01141502  00000-0 -55356-2 0  9996","INCLINATION":"53.2174","COUNTRY_CODE":"US","APOAPSIS":"324.173","PERIAPSIS":"311.707","MEAN_ELEMENT_THEORY":"SGP4","RA_OF_ASC_NODE":"111.8961","OBJECT_NAME":"STARLINK-5178","SITE":"AFETR","NORAD_CAT_ID":"54083","OBJECT_TYPE":"PAYLOAD"},{"NORAD_CAT_ID":"54084","SITE":"AFETR","OBJECT_TYPE":"PAYLOAD","RA_OF_ASC_NODE":"111.8978","PERIAPSIS":"311.789","MEAN_ELEMENT_THEORY":"SGP4","OBJECT_NAME":"STARLINK-5183","TLE_LINE1":"1 54084U 22136AK  22300.91667824 -.01141116  00000-0 -55457-2 0  9990","RCS_SIZE":null,"SEMIMAJOR_AXIS":"6696.208","APOAPSIS":"324.358","COUNTRY_CODE":"US","INCLINATION":"53.2174","OBJECT_ID":"2022-136AK","TLE_LINE2":"2 54084  53.2174 111.8978 0009385  49.1643  84.4462 15.84379856  1300","MEAN_MOTION_DDOT":"0.0000000000000","MEAN_MOTION_DOT":"-0.01141116","BSTAR":"-0.00554570000000","FILE":"3636022","PERIOD":"90.887","EPHEMERIS_TYPE":"0","REF_FRAME":"TEME","ECCENTRICITY":"0.00093850","REV_AT_EPOCH":"130","ELEMENT_SET_NO":"999","CLASSIFICATION_TYPE":"U","ARG_OF_PERICENTER":"49.1643","DECAY_DATE":null,"LAUNCH_DATE":"2022-10-20","GP_ID":"216338799","TIME_SYSTEM":"UTC","CENTER_NAME":"EARTH","MEAN_ANOMALY":"84.4462","EPOCH":"2022-10-27T22:00:00.999936","MEAN_MOTION":"15.84379856"},{"MEAN_MOTION":"15.84444528","CENTER_NAME":"EARTH","EPOCH":"2022-10-27T22:00:00.999936","MEAN_ANOMALY":"85.5260","LAUNCH_DATE":"2022-10-20","DECAY_DATE":null,"TIME_SYSTEM":"UTC","GP_ID":"216339431","REV_AT_EPOCH":"130","ELEMENT_SET_NO":"999","CLASSIFICATION_TYPE":"U","ARG_OF_PERICENTER":"49.4691","PERIOD":"90.884","EPHEMERIS_TYPE":"0","REF_FRAME":"TEME","ECCENTRICITY":"0.00093510","MEAN_MOTION_DOT":"-0.01141670","BSTAR":"-0.00553160000000","FILE":"3636022","TLE_LINE2":"2 54085  53.2174 111.8955 0009351  49.4691  85.5260 15.84444528  1302","OBJECT_ID":"2022-136AL","MEAN_MOTION_DDOT":"0.0000000000000","COUNTRY_CODE":"US","INCLINATION":"53.2174","APOAPSIS":"324.153","SEMIMAJOR_AXIS":"6696.026","RCS_SIZE":null,"TLE_LINE1":"1 54085U 22136AL  22300.91667824 -.01141670  00000-0 -55316-2 0  9990","RA_OF_ASC_NODE":"111.8955","MEAN_ELEMENT_THEORY":"SGP4","PERIAPSIS":"311.630","OBJECT_NAME":"STARLINK-5166","SITE":"AFETR","NORAD_CAT_ID":"54085","OBJECT_TYPE":"PAYLOAD"},{"GP_ID":"216339260","TIME_SYSTEM":"UTC","LAUNCH_DATE":"2022-10-20","DECAY_DATE":null,"EPOCH":"2022-10-27T22:00:00.999936","MEAN_ANOMALY":"86.0627","CENTER_NAME":"EARTH","MEAN_MOTION":"15.84391051","MEAN_MOTION_DDOT":"0.0000000000000","OBJECT_ID":"2022-136AM","TLE_LINE2":"2 54086  53.2174 111.8972 0008624  47.9130  86.0627 15.84391051  1300","FILE":"3636022","MEAN_MOTION_DOT":"-0.01135716","BSTAR":"-0.00551790000000","PERIOD":"90.887","EPHEMERIS_TYPE":"0","REF_FRAME":"TEME","ECCENTRICITY":"0.00086240","ARG_OF_PERICENTER":"47.9130","CLASSIFICATION_TYPE":"U","REV_AT_EPOCH":"130","ELEMENT_SET_NO":"999","TLE_LINE1":"1 54086U 22136AM  22300.91667824 -.01135716  00000-0 -55179-2 0  9992","RCS_SIZE":null,"SEMIMAJOR_AXIS":"6696.177","APOAPSIS":"323.817","COUNTRY_CODE":"US","INCLINATION":"53.2174","SITE":"AFETR","NORAD_CAT_ID":"54086","OBJECT_TYPE":"PAYLOAD","OBJECT_NAME":"STARLINK-5211","RA_OF_ASC_NODE":"111.8972","MEAN_ELEMENT_THEORY":"SGP4","PERIAPSIS":"312.267"},{"GP_ID":"216338206","TIME_SYSTEM":"UTC","DECAY_DATE":null,"LAUNCH_DATE":"2022-10-20","MEAN_MOTION":"15.84461796","EPOCH":"2022-10-27T22:00:00.999936","MEAN_ANOMALY":"88.7077","CENTER_NAME":"EARTH","FILE":"3636022","BSTAR":"-0.00552900000000","MEAN_MOTION_DOT":"-0.01140982","MEAN_MOTION_DDOT":"0.0000000000000","OBJECT_ID":"2022-136AN","TLE_LINE2":"2 54087  53.2174 111.8950 0008468  46.6099  88.7077 15.84461796  1305","ARG_OF_PERICENTER":"46.6099","CLASSIFICATION_TYPE":"U","ELEMENT_SET_NO":"999","REV_AT_EPOCH":"130","REF_FRAME":"TEME","ECCENTRICITY":"0.00084680","PERIOD":"90.883","EPHEMERIS_TYPE":"0","SEMIMAJOR_AXIS":"6695.978","TLE_LINE1":"1 54087U 22136AN  22300.91667824 -.01140982  00000-0 -55290-2 0  9998","RCS_SIZE":null,"INCLINATION":"53.2174","COUNTRY_CODE":"US","APOAPSIS":"323.513","OBJECT_NAME":"STARLINK-5184","PERIAPSIS":"312.172","MEAN_ELEMENT_THEORY":"SGP4","RA_OF_ASC_NODE":"111.8950","SITE":"AFETR","OBJECT_TYPE":"PAYLOAD","NORAD_CAT_ID":"54087"},{"FILE":"3636022","BSTAR":"-0.00554190000000","MEAN_MOTION_DOT":"-0.01141478","MEAN_MOTION_DDOT":"0.0000000000000","TLE_LINE2":"2 54088  53.2174 111.8965 0008958  48.7067  85.6011 15.84412092  1303","OBJECT_ID":"2022-136AP","ARG_OF_PERICENTER":"48.7067","REV_AT_EPOCH":"130","ELEMENT_SET_NO":"999","CLASSIFICATION_TYPE":"U","REF_FRAME":"TEME","ECCENTRICITY":"0.00089580","EPHEMERIS_TYPE":"0","PERIOD":"90.885","TIME_SYSTEM":"UTC","GP_ID":"216338382","LAUNCH_DATE":"2022-10-20","DECAY_DATE":null,"MEAN_MOTION":"15.84412092","MEAN_ANOMALY":"85.6011","EPOCH":"2022-10-27T22:00:00.999936","CENTER_NAME":"EARTH","OBJECT_NAME":"STARLINK-5153","MEAN_ELEMENT_THEORY":"SGP4","PERIAPSIS":"311.984","RA_OF_ASC_NODE":"111.8965","OBJECT_TYPE":"PAYLOAD","SITE":"AFETR","NORAD_CAT_ID":"54088","SEMIMAJOR_AXIS":"6696.118","TLE_LINE1":"1 54088U 22136AP  22300.91667824 -.01141478  00000-0 -55419-2 0  9993","RCS_SIZE":null,"INCLINATION":"53.2174","COUNTRY_CODE":"US","APOAPSIS":"323.981"},{"COUNTRY_CODE":"US","INCLINATION":"53.2174","APOAPSIS":"323.975","SEMIMAJOR_AXIS":"6695.828","RCS_SIZE":null,"TLE_LINE1":"1 54089U 22136AQ  22300.91667824 -.01142062  00000-0 -55147-2 0  9992","OBJECT_NAME":"STARLINK-5143","RA_OF_ASC_NODE":"111.8930","PERIAPSIS":"311.411","MEAN_ELEMENT_THEORY":"SGP4","SITE":"AFETR","OBJECT_TYPE":"PAYLOAD","NORAD_CAT_ID":"54089","MEAN_MOTION":"15.84514768","MEAN_ANOMALY":"87.3274","EPOCH":"2022-10-27T22:00:00.999936","CENTER_NAME":"EARTH","TIME_SYSTEM":"UTC","GP_ID":"216339148","LAUNCH_DATE":"2022-10-20","DECAY_DATE":null,"ARG_OF_PERICENTER":"48.9571","CLASSIFICATION_TYPE":"U","ELEMENT_SET_NO":"999","REV_AT_EPOCH":"130","EPHEMERIS_TYPE":"0","PERIOD":"90.880","ECCENTRICITY":"0.00093820","REF_FRAME":"TEME","FILE":"3636022","MEAN_MOTION_DOT":"-0.01142062","BSTAR":"-0.00551470000000","MEAN_MOTION_DDOT":"0.0000000000000","OBJECT_ID":"2022-136AQ","TLE_LINE2":"2 54089  53.2174 111.8930 0009382  48.9571  87.3274 15.84514768  1303"},{"OBJECT_ID":"2022-136AR","TLE_LINE2":"2 54090  53.2174 111.8930 0008594  48.2935  87.7146 15.84493915  1308","MEAN_MOTION_DDOT":"0.0000000000000","BSTAR":"-0.00551850000000","MEAN_MOTION_DOT":"-0.01140787","FILE":"3636022","REF_FRAME":"TEME","ECCENTRICITY":"0.00085940","PERIOD":"90.881","EPHEMERIS_TYPE":"0","REV_AT_EPOCH":"130","CLASSIFICATION_TYPE":"U","ELEMENT_SET_NO":"999","ARG_OF_PERICENTER":"48.2935","DECAY_DATE":null,"LAUNCH_DATE":"2022-10-20","GP_ID":"216338977","TIME_SYSTEM":"UTC","CENTER_NAME":"EARTH","MEAN_ANOMALY":"87.7146","EPOCH":"2022-10-27T22:00:00.999936","MEAN_MOTION":"15.84493915","OBJECT_TYPE":"PAYLOAD","SITE":"AFETR","NORAD_CAT_ID":"54090","MEAN_ELEMENT_THEORY":"SGP4","PERIAPSIS":"311.998","RA_OF_ASC_NODE":"111.8930","OBJECT_NAME":"STARLINK-5177","TLE_LINE1":"1 54090U 22136AR  22300.91667824 -.01140787  00000-0 -55185-2 0  9998","RCS_SIZE":null,"SEMIMAJOR_AXIS":"6695.887","APOAPSIS":"323.507","INCLINATION":"53.2174","COUNTRY_CODE":"US"},{"EPOCH":"2022-10-27T22:00:00.999936","MEAN_ANOMALY":"87.7793","CENTER_NAME":"EARTH","MEAN_MOTION":"15.84555855","GP_ID":"216338624","TIME_SYSTEM":"UTC","LAUNCH_DATE":"2022-10-20","DECAY_DATE":null,"PERIOD":"90.877","EPHEMERIS_TYPE":"0","REF_FRAME":"TEME","ECCENTRICITY":"0.00095070","ARG_OF_PERICENTER":"49.6076","CLASSIFICATION_TYPE":"U","ELEMENT_SET_NO":"999","REV_AT_EPOCH":"130","MEAN_MOTION_DDOT":"0.0000000000000","TLE_LINE2":"2 54091  53.2175 111.8909 0009507  49.6076  87.7793 15.84555855  1302","OBJECT_ID":"2022-136AS","FILE":"3636022","MEAN_MOTION_DOT":"-0.01138822","BSTAR":"-0.00548510000000","APOAPSIS":"323.943","COUNTRY_CODE":"US","INCLINATION":"53.2175","RCS_SIZE":null,"TLE_LINE1":"1 54091U 22136AS  22300.91667824 -.01138822  00000-0 -54851-2 0  9995","SEMIMAJOR_AXIS":"6695.713","NORAD_CAT_ID":"54091","SITE":"AFETR","OBJECT_TYPE":"PAYLOAD","OBJECT_NAME":"STARLINK-5221","RA_OF_ASC_NODE":"111.8909","MEAN_ELEMENT_THEORY":"SGP4","PERIAPSIS":"311.212"}];
